{"type":"FeatureCollection","metadata":{"name":"Зоны доставки \"ГУСТО&ПРЯНО\"","creator":"Yandex Map Constructor"},"features":[{"type":"Feature","id":0,"geometry":{"type":"Polygon","coordinates":[[[82.9929858,55.0543804],[82.9897707,55.0556623],[82.9881872,55.0568301],[82.9891939,55.0572674],[82.989826,55.0575428],[82.9901926,55.0576939],[82.9914118,55.0582314],[82.9923763,55.0586499],[82.9933382,55.0590652],[82.9939427,55.0595285],[82.9944061,55.0603016],[82.9946863,55.0608758],[82.9958037,55.0627403],[82.9963724,55.0631198],[82.9972979,55.0637188],[82.9949043,55.0652714],[82.99186074418029,55.06730354234463],[82.98713468022451,55.07007846272625],[82.98493652875817,55.07107032178867],[82.98312191551354,55.07187815844105],[82.98432286724237,55.072884667841045],[82.98513221645509,55.07455907627789],[82.9847386857666,55.076158884160115],[82.98335808471677,55.07726287308245],[82.98042527625728,55.078316112243996],[82.97520284025877,55.080344827273706],[82.97132620373532,55.0820390795534],[82.9604226,55.0765213],[82.9588858,55.0757147],[82.9573061,55.0749327],[82.9539829,55.0731235],[82.9530403,55.0727103],[82.9528212,55.0726419],[82.9502524,55.0713941],[82.9468545,55.0695906],[82.9455312,55.0688547],[82.9447229,55.06748],[82.9437801,55.0669398],[82.9415819,55.0657607],[82.9403936,55.065147],[82.9377842,55.0638242],[82.9358292,55.0628302],[82.9360683,55.0618976],[82.9362804,55.0611125],[82.9369056,55.0596177],[82.9375147,55.0581014],[82.9384056,55.0558488],[82.9390123,55.0543059],[82.939453,55.0532728],[82.9396215,55.0513324],[82.9398966,55.0503853],[82.9401126,55.0495272],[82.9404052,55.048057],[82.9414959,55.0442675],[82.94314512432862,55.039402957264876],[82.94492013359073,55.0388450001845],[82.94948955794976,55.0392243284732],[82.94981033201596,55.0377336902256],[82.95021211786037,55.037148555108885],[82.95072119206542,55.03664967659537],[82.95623351404717,55.03557392026461],[82.95758419751427,55.035011383048435],[82.95972881484984,55.0348678606544],[82.96284503494866,55.03501149988797],[82.96376415422968,55.03505497215996],[82.96457598515012,55.03485196238262],[82.96539989638822,55.03492894041702],[82.96605214624933,55.03510451092086],[82.97162774229731,55.03305607989942],[82.9774088,55.0374628],[82.978709,55.0384076],[82.9806699,55.0398675],[82.9823137,55.0410714],[82.983479,55.0419715],[82.9845706,55.042603],[82.9858025,55.0431392],[82.9879482,55.0436216],[82.9899007,55.0439566],[82.9993757,55.0455758],[83.0001334,55.045787],[83.0004097,55.0458795],[83.0005358,55.0459843],[83.001126,55.0461563],[83.001515,55.0463943],[83.0033671,55.0465917],[83.003881,55.0464403],[83.0038763,55.0466653],[83.0044661,55.0470831],[83.005116,55.0474563],[83.0069566,55.0484094],[83.0047643,55.0496411],[83.0036304,55.0503548],[83.0016558,55.051539],[83.000601,55.0520272],[82.9995161,55.0524835],[82.9979904,55.0529334],[82.9964324,55.0533726],[82.9943671,55.0539518],[82.9929858,55.0543804]]]},"properties":{"description":"Зелёная зона\nМинимальная сумма заказа — 699 руб.\nПри заказе до 1000 руб. — стоимость доставки 150 руб.\nПри заказе свыше 1000 руб. - доставка бесплатно.\nВремя доставки 70 мин.","fill":"#1bad03","fill-opacity":0.64,"stroke":"#1bad03","stroke-width":"1.2","stroke-opacity":1}},{"type":"Feature","id":1,"geometry":{"type":"Polygon","coordinates":[[[82.9605053,55.0956039],[82.97598367141113,55.089586098908896],[82.99160223022459,55.08708476280969],[82.99809025402831,55.08430245714031],[83.0048312,55.0811767],[83.0056387,55.0814718],[83.0127191,55.0755251],[83.0130092,55.0728034],[83.012581,55.0725228],[83.0116266,55.0724501],[83.011761,55.0716705],[83.0112313,55.0716015],[83.0116955,55.0692767],[83.012884,55.0691032],[83.0137974,55.0686239],[83.0132698,55.0682629],[83.0136392,55.0678244],[83.0180057,55.0661366],[83.0174874,55.0656554],[83.0206293,55.0647144],[83.0201663,55.0642096],[83.0232967,55.063391],[83.0226539,55.0619368],[83.0233104,55.0617246],[83.0191771,55.0588624],[83.0193718,55.0581875],[83.0214305,55.057264],[83.0225535,55.0563763],[83.0233433,55.0540191],[83.0242982,55.0541178],[83.0253582,55.0512247],[83.025228,55.0506891],[83.0269116,55.0453101],[83.0298453,55.0441809],[83.0279877,55.0427009],[83.0298353,55.0420754],[83.030483,55.040842],[83.0033551,55.0362526],[82.9949073,55.0332006],[82.9711422,55.0212023],[82.969535,55.0199472],[82.9520015,55.026946],[82.9514752,55.0270031],[82.9483851,55.025574],[82.9476372,55.0256665],[82.9408736,55.028203],[82.9321105,55.0320616],[82.926683,55.0519885],[82.9256203,55.0539778],[82.9256044,55.0555491],[82.9250552,55.05632],[82.9221656,55.0578261],[82.9227156,55.0597376],[82.9222075,55.0600571],[82.921812,55.0602045],[82.9216111,55.060444],[82.9194713,55.0621704],[82.9190427,55.0630678],[82.9167364,55.0659742],[82.9232438,55.069658],[82.9221657,55.0702116],[82.9204244,55.0714228],[82.9190675,55.0722146],[82.9232576,55.0747487],[82.920848,55.0763918],[82.9258782,55.0793859],[82.9274138,55.0795868],[82.9286699,55.0805148],[82.933814,55.0834609],[82.9364807,55.08526],[82.9366282,55.0893903],[82.9412741,55.089592],[82.9573236,55.0946145],[82.956838,55.0967333],[82.9555112,55.0969173],[82.9538411,55.0966776],[82.9472397,55.0946266],[82.9464161,55.0949684],[82.9431413,55.0951402],[82.9365023,55.0950445],[82.93644,55.0949528],[82.9335902,55.0950027],[82.9325898,55.0940466],[82.9325046,55.0937336],[82.932053,55.0934051],[82.9317731,55.0930519],[82.9317712,55.092622],[82.9309912,55.0926271],[82.9309973,55.0918822],[82.9206229,55.0906975],[82.9016193,55.0878903],[82.8931861,55.0876778],[82.8933412,55.085915],[82.8938826,55.0843117],[82.8954647,55.082371],[82.8956194,55.0815112],[82.8937572,55.079939],[82.8888743,55.0786861],[82.886576,55.0775068],[82.8845273,55.0752229],[82.884006,55.0734836],[82.8707767,55.0692174],[82.8705918,55.0665249],[82.8740468,55.0639166],[82.8805903,55.0633224],[82.8775835,55.0574338],[82.8655637,55.051053],[82.8654707,55.0474853],[82.868116,55.0474493],[82.8714305,55.0476835],[82.8804908,55.0451733],[82.8847921,55.0418081],[82.8889594,55.0378437],[82.8937345,55.0302783],[82.8953243,55.0295343],[82.9041005,55.0234214],[82.9066434,55.0220548],[82.9208277,55.0162319],[82.9244374,55.013611],[82.925188,55.0133404],[82.9265393,55.0123561],[82.9272533,55.0120296],[82.9386259,55.0073293],[82.9567147,54.9999946],[82.9628235,54.9977691],[82.9639849,54.9990931],[82.9648083,54.9990072],[82.9655553,55.0013853],[82.9651948,55.0016021],[82.9653454,55.0020148],[82.965196,55.0022248],[82.9654122,55.0024847],[82.9657373,55.0024262],[82.966452,55.0031214],[82.9672955,55.0029182],[82.9675811,55.0029857],[82.9679296,55.0033173],[82.9710084,55.0056268],[82.9859355,54.9993703],[82.9898191,55.0016821],[82.9941638,55.0027415],[82.9933998,55.0040266],[82.9900608,55.0067882],[82.9910482,55.0088067],[82.9941868,55.0116555],[82.9967996,55.0093116],[83.0016172,55.0089058],[83.0075079,55.0098779],[83.0076851,55.0118128],[83.0069182,55.0136001],[83.0068865,55.0154272],[83.0111168,55.0167761],[83.0126039,55.0165372],[83.014048,55.0164706],[83.0151804,55.016714],[83.0180304,55.018325],[83.0188281,55.0192299],[83.0198075,55.018973],[83.0200774,55.0190415],[83.0211812,55.0200586],[83.023349,55.0202528],[83.0242807,55.0207476],[83.0244527,55.0216253],[83.0254615,55.0230364],[83.0274362,55.0239398],[83.0278561,55.0246272],[83.0275465,55.0260537],[83.0264092,55.0296204],[83.0263953,55.031535],[83.0255997,55.0342584],[83.0249287,55.0354495],[83.0241249,55.0362566],[83.0257723,55.0365189],[83.0264533,55.0367342],[83.0284693,55.036516],[83.0304689,55.0403155],[83.0333534,55.0407462],[83.0329688,55.0413826],[83.0439128,55.0434838],[83.0382968,55.0505962],[83.0361266,55.0523208],[83.0290111,55.0551508],[83.0293052,55.0559212],[83.0292484,55.0567242],[83.0313979,55.0572179],[83.0322741,55.0571483],[83.0332899,55.0566977],[83.0338102,55.0567869],[83.0355965,55.0580806],[83.0367477,55.0583426],[83.0385368,55.0610536],[83.0385088,55.0632244],[83.035138,55.0660558],[83.0348529,55.066094],[83.0309016,55.0694157],[83.0313332,55.0700236],[83.0279226,55.0720599],[83.0269466,55.0724759],[83.0254716,55.0724013],[83.024219,55.0721305],[83.0235284,55.072548],[83.0217958,55.0731212],[83.0202853,55.0739973],[83.0213249,55.0743788],[83.020959,55.0749271],[83.0210736,55.0757166],[83.0209178,55.0761337],[83.0230404,55.07704],[83.0238104,55.0772875],[83.0247356,55.0774331],[83.0251304,55.0778801],[83.0260203,55.080317],[83.0233101,55.0798546],[83.0222454,55.0797942],[83.0139435,55.0871058],[83.00966087770989,55.08963966258183],[82.9960545,55.0969944],[82.9808038,55.0993093],[82.9801991,55.0980496],[82.9728738,55.099318],[82.9739331,55.1015026],[82.9722242,55.1017228],[82.9611228,55.0983022],[82.9568583,55.0967333],[82.9574121,55.0946329],[82.9605053,55.0956039]]]},"properties":{"description":"Красная зона\n\nМинимальная сумма заказа — 1899 руб.\nПри заказе до 2200 руб. — стоимость доставки 150 руб.\nПри заказе свыше 2200 руб. - доставка бесплатно.\nВремя доставки 70 мин.","fill":"#793d0e","fill-opacity":0.77,"stroke":"#793d0e","stroke-width":"1.2","stroke-opacity":1}},{"type":"Feature","id":2,"geometry":{"type":"Polygon","coordinates":[[[82.9414747,55.0442384],[82.9403508,55.0481192],[82.9399538,55.0499877],[82.9395569,55.0513152],[82.9393852,55.053288],[82.9362095,55.0610922],[82.9357481,55.0628556],[82.9415524,55.0657986],[82.9446531,55.0674819],[82.9455114,55.0689195],[82.9501891,55.071432],[82.9528499,55.0727097],[82.9531396,55.0727957],[82.9539871,55.0731704],[82.9572594,55.0749701],[82.96713,55.0800126],[82.97135711694943,55.08209280023428],[82.97526394474535,55.080366391937204],[82.97868490719294,55.079053894399934],[82.98107208643032,55.078151960678554],[82.98338416381529,55.077311561672474],[82.98478155263133,55.076164196212574],[82.98519998378286,55.07453930022486],[82.98439800983276,55.07287740081274],[82.98318030003055,55.0718867178849],[82.98716073757322,55.0701047962774],[82.9918599,55.0673406],[82.997396,55.0637097],[82.9959262,55.0627573],[82.9947567,55.0608833],[82.9944992,55.060318],[82.9939842,55.0594762],[82.9934263,55.0590522],[82.9903686,55.0577188],[82.9882872,55.0568155],[82.9898107,55.0557093],[82.9930723,55.0544188],[82.9995632,55.0525321],[83.0018056,55.0515365],[83.0048418,55.049662],[83.0070734,55.048402],[83.0045307,55.0470682],[83.0039513,55.0466502],[83.0039513,55.0464166],[83.0038119,55.0464105],[83.003372,55.0465519],[83.0015373,55.0463552],[83.001194,55.0461093],[83.0006254,55.0459495],[83.0004108,55.0458266],[82.9993272,55.0455131],[82.9879868,55.0435829],[82.9858411,55.0430973],[82.9846394,55.0425625],[82.9835558,55.0419293],[82.9774082,55.03738],[82.9716789460022,55.032947403940796],[82.96606405109303,55.03508466788136],[82.9654504957809,55.034917480413846],[82.96457743674652,55.034828181810916],[82.96376070410152,55.03503564145669],[82.95973757712089,55.03484678585174],[82.95757590319666,55.03498760030972],[82.95621520930834,55.03555587304563],[82.95065409905109,55.03659958579938],[82.95015699941403,55.03706715392058],[82.94973852429807,55.03763908087572],[82.94942197818749,55.03918540376164],[82.94493196136159,55.03881237695654],[82.94310269587852,55.039382047356206],[82.9414881,55.0442161],[82.9291539,55.0431856],[82.9321969,55.03208],[82.9410053,55.028206],[82.9476571,55.0257215],[82.948376,55.0256293],[82.9514981,55.027056],[82.952056,55.0269945],[82.9695225,55.0200141],[82.9710996,55.021275],[82.9949498,55.0332729],[83.003372,55.0363287],[83.0303872,55.0408658],[83.0297327,55.042083],[83.0278445,55.0426793],[83.0297113,55.0441669],[83.0268359,55.0452733],[83.0251622,55.0506822],[83.025291,55.0512353],[83.0242396,55.0540685],[83.023274,55.0539579],[83.0225052,55.0563671],[83.0213857,55.0572364],[83.0193097,55.0581858],[83.0191165,55.0588679],[83.0231989,55.061719],[83.0225444,55.0619156],[83.0231881,55.0633656],[83.0201036,55.0642012],[83.0205596,55.0647111],[83.017416,55.0656573],[83.0179203,55.0661303],[83.0135,55.0678444],[83.0131781,55.0683051],[83.0136931,55.0686246],[83.0128348,55.0690546],[83.0116117,55.0692328],[83.0111504,55.071647],[83.0116868,55.0717084],[83.0115366,55.0724947],[83.0125559,55.0725745],[83.0129206,55.0728264],[83.0126417,55.0755106],[83.0056143,55.0814129],[83.0048633,55.0811119],[82.99676300904542,55.08477332966833],[82.99153807596431,55.0870152518428],[82.98863057147214,55.08746013779569],[82.97591691373897,55.08956084282652],[82.9604888,55.0955477],[82.9412842,55.0895247],[82.9366923,55.0893466],[82.9365742,55.0852264],[82.933892,55.0834272],[82.9287422,55.0804794],[82.9274225,55.079509],[82.9259098,55.079337],[82.9209531,55.0764012],[82.9233992,55.0747306],[82.9191506,55.0722183],[82.9205132,55.0714258],[82.9222193,55.070227],[82.9233563,55.0696567],[82.9168225,55.0659522],[82.9191399,55.0630645],[82.9195476,55.0621982],[82.9216397,55.0604962],[82.9218543,55.0602566],[82.9221869,55.0601214],[82.9228306,55.0597097],[82.9222727,55.0578233],[82.9251373,55.05633],[82.9256845,55.0555926],[82.9256952,55.0539825],[82.9267681,55.051979],[82.9291499,55.0431987],[82.9414747,55.0442384]]]},"properties":{"description":"Желтая зона\n\nМинимальная сумма заказа — 1299 руб.\nПри заказе до 1500 руб. — стоимость доставки 150 руб.\nПри заказе свыше 1500 руб. - доставка бесплатно. \nВремя доставки 70 мин.","fill":"#ffd21e","fill-opacity":0.59,"stroke":"#ffd21e","stroke-width":"1.2","stroke-opacity":1}}]}