{"type":"FeatureCollection","metadata":{"name":"Pizzato","creator":"Yandex Map Constructor"},"features":[{"type":"Feature","id":0,"geometry":{"type":"Polygon","coordinates":[[[83.070733,54.865936],[83.0748102,54.8656581],[83.07466,54.8601099],[83.0763979,54.8598476],[83.0908818,54.8594894],[83.0946798,54.8593844],[83.1013317,54.8591189],[83.106492,54.8613297],[83.1090616,54.8624844],[83.1107731,54.8632377],[83.1119851,54.8650683],[83.1156868,54.8724556],[83.1237979,54.8721469],[83.1242485,54.8750236],[83.1211586,54.8757644],[83.1153221,54.8776409],[83.1081981,54.8791222],[83.1014175,54.8787766],[83.0958385,54.8756656],[83.0954094,54.8736408],[83.0927486,54.8725543],[83.0709047,54.8718136],[83.067686,54.8678619],[83.070733,54.865936]]]},"properties":{"description":"Зеленая зона\nМинимальная сумма заказа 800 р.\nБесплатная доставка","fill":"#1bad03","fill-opacity":0.53,"stroke":"#1bad03","stroke-width":"3.001","stroke-opacity":1}},{"type":"Feature","id":1,"geometry":{"type":"Polygon","coordinates":[[[83.0945412,54.8592168],[83.0971161,54.8573889],[83.0935542,54.8558326],[83.0888335,54.8515339],[83.0876748,54.8501257],[83.0913226,54.8459746],[83.0853144,54.84081],[83.0945412,54.833964],[83.0965582,54.8327528],[83.0990902,54.8324809],[83.1008498,54.8317641],[83.1015793,54.8308742],[83.1020514,54.8299102],[83.1051413,54.8297371],[83.108317,54.8317147],[83.1210629,54.8370782],[83.1263751,54.8424956],[83.1246585,54.8495131],[83.1209248,54.8547755],[83.1174916,54.8640879],[83.1156677,54.8653475],[83.1106734,54.8631617],[83.1055075,54.8608801],[83.1034046,54.8599847],[83.101334,54.8590862],[83.0945319,54.8593671],[83.0945412,54.8592168]]]},"properties":{"description":"Желтая зона I\nМинимальная сумма заказа 1200 р.\nБесплатная доставка","fill":"#ffd21e","fill-opacity":0.52,"stroke":"#ffd21e","stroke-width":"3.401","stroke-opacity":1}},{"type":"Feature","id":2,"geometry":{"type":"Polygon","coordinates":[[[83.1630533,54.8994183],[83.1898755,54.9057846],[83.1924933,54.9304006],[83.2104319,54.9341484],[83.2172983,54.9414951],[83.1900042,54.9529316],[83.1700056,54.9456856],[83.1656282,54.9402625],[83.1532686,54.9119522],[83.1630533,54.8994183]]]},"properties":{"description":"Красная зона I\nМинимальная сумма заказа 1800 р.\nДоставка 200 р.","fill":"#ed4543","fill-opacity":0.54,"stroke":"#ed4543","stroke-width":"3.401","stroke-opacity":1}},{"type":"Feature","id":3,"geometry":{"type":"Polygon","coordinates":[[[83.0776569,54.8855202],[83.0890295,54.8877912],[83.0964967,54.8847056],[83.1125471,54.8839403],[83.1228897,54.8883096],[83.1171819,54.8920366],[83.1159912,54.8967936],[83.1131693,54.8983916],[83.1045219,54.8980338],[83.0960676,54.8955166],[83.092806,54.8921354],[83.0798456,54.8925549],[83.073065,54.8906545],[83.0776569,54.8855202]]]},"properties":{"description":"Красная зона II\nМинимальная сумма заказа 1800 р.\nДоставка 200 р.","fill":"#ed4543","fill-opacity":0.52,"stroke":"#ed4543","stroke-width":"3.501","stroke-opacity":1}},{"type":"Feature","id":4,"geometry":{"type":"Polygon","coordinates":[[[83.0350958,54.8556805],[83.037451,54.8506952],[83.0395217,54.8448701],[83.0408035,54.8430426],[83.0453097,54.8431538],[83.0508457,54.8434504],[83.0546975,54.842144],[83.0595144,54.8414923],[83.0645786,54.8467121],[83.0715309,54.8545441],[83.0593859,54.8550876],[83.056296,54.8561252],[83.0483137,54.8583978],[83.0350958,54.8556805]]]},"properties":{"description":"Желтая зона II\nМинимальная сумма заказа 1200 р.\nБесплатная доставка","fill":"#ffd21e","fill-opacity":0.54,"stroke":"#ffd21e","stroke-width":"3.701","stroke-opacity":1}}]}