{"type":"FeatureCollection","metadata":{"name":"Sunrise","creator":"Yandex Map Constructor"},"features":[{"type":"Feature","id":0,"geometry":{"type":"Polygon","coordinates":[[[83.09928942116389,54.858200584156606],[83.0972663,54.8573148],[83.0935542,54.8558326],[83.08765332803343,54.85320526140006],[83.08269662006836,54.851004751782085],[83.08717054257502,54.84755492910908],[83.09022825872185,54.84545453472817],[83.08973472578725,54.84499782471102],[83.08833997386157,54.844856147243],[83.08767478278797,54.84439251481486],[83.08724562286974,54.844072006093725],[83.08737436242667,54.84340476620832],[83.08555044734494,54.84155013736161],[83.0853144,54.84081],[83.0945412,54.833964],[83.09539949629514,54.83333363192047],[83.0965582,54.8327528],[83.0990902,54.8324809],[83.1008498,54.8317641],[83.1015793,54.8308742],[83.1020514,54.8299102],[83.1051413,54.8297371],[83.10636436957394,54.83023042405563],[83.108317,54.8317147],[83.1210629,54.8370782],[83.1263751,54.8424956],[83.1246585,54.8495131],[83.1209248,54.8547755],[83.1174916,54.8640879],[83.11563010304106,54.86529201766634],[83.11329943591406,54.86424070430916],[83.11217378807045,54.86372432002213],[83.11060363187717,54.863025931520724],[83.10545939976112,54.860847663280154],[83.1034475153442,54.859978848500724],[83.10245513068841,54.85956664128271],[83.10133399999995,54.85906159200156],[83.09928942116389,54.858200584156606]]]},"properties":{"description":"Желтая зона (Академ)\nВремя доставки 70 мин.\nМинимальная сумма заказа от 1000 р.","fill":"#ffd21e","fill-opacity":0.77,"stroke":"#ffd21e","stroke-width":"2.301","stroke-opacity":1}},{"type":"Feature","id":1,"geometry":{"type":"Polygon","coordinates":[[[83.04666682471485,54.8582566417979],[83.04467932032244,54.856708630934016],[83.04241956547122,54.855575600198115],[83.04005252225947,54.854739651976935],[83.03890196483452,54.85525536796191],[83.03632908339759,54.85538429591823],[83.03504366228786,54.85509231875006],[83.037451,54.8506952],[83.03698431295163,54.85007333600804],[83.0395217,54.8448701],[83.0408035,54.8430426],[83.0453097,54.8431538],[83.0508457,54.8434504],[83.0546975,54.842144],[83.0595144,54.8414923],[83.0645786,54.8467121],[83.07163818836062,54.85450696062426],[83.0593859,54.8550876],[83.056296,54.8561252],[83.05106028203123,54.86011838803234],[83.04666682471485,54.8582566417979]]]},"properties":{"description":"Красная зона I (Академ)\nВремя доставки 80 мин.\nМинимальная сумма заказа от 1800 р.\nПлатная доставка 200 р.","fill":"#793d0e","fill-opacity":0.84,"stroke":"#793d0e","stroke-width":"3.201","stroke-opacity":1}},{"type":"Feature","id":2,"geometry":{"type":"Polygon","coordinates":[[[83.07658401639401,54.885495459520655],[83.0890295,54.8877912],[83.0964967,54.8847056],[83.1125471,54.8839403],[83.1177718,54.8870446],[83.12315241429444,54.88460873070973],[83.12488528042601,54.886570008923385],[83.1171819,54.8920366],[83.11772927144163,54.89723880075272],[83.11462842170404,54.899479816412736],[83.10686078626092,54.89959193282177],[83.10009090211479,54.896045574146754],[83.0960676,54.8955166],[83.09256995026239,54.891975319179295],[83.078762,54.8911912],[83.07530732009883,54.89088035491706],[83.07394476057428,54.89047755814663],[83.0731830158691,54.889802642187355],[83.07658401639401,54.885495459520655]]]},"properties":{"description":"Красная зона III (Академ)\nВремя доставки 80 мин.\nМинимальная сумма заказа от 1800 р.\nПлатная доставка 200 р.","fill":"#793d0e","fill-opacity":0.73,"stroke":"#793d0e","stroke-width":"2.701","stroke-opacity":1}},{"type":"Feature","id":3,"geometry":{"type":"Polygon","coordinates":[[[83.16374714959869,54.74022663268726],[83.16345609999999,54.74018261876826],[83.16282846553729,54.74006910250725],[83.16253342499236,54.739697972073586],[83.16061829297638,54.73901153108299],[83.1590573,54.7384141],[83.1606238,54.7369461],[83.1635419,54.7334898],[83.1660095677063,54.73108430953899],[83.16887414998467,54.732188157206416],[83.17287598888551,54.73336647743866],[83.1788090476379,54.73509850450155],[83.18003214736012,54.73543983583331],[83.18107820943017,54.73412992822573],[83.18183325140637,54.734001115867024],[83.18385429603767,54.73169927679131],[83.18538583766234,54.73219910916851],[83.18411447114356,54.733726481448045],[83.18436659934528,54.73473229812625],[83.18715609893792,54.73668808768256],[83.19270291161487,54.73191423311233],[83.19596448221121,54.7331874284128],[83.19556225760083,54.733560341830135],[83.19435537028599,54.73452926052166],[83.19279990254108,54.73578413350004],[83.1912648859982,54.73693301939786],[83.19051131481764,54.7369524194215],[83.18877717448802,54.7386751041111],[83.18625489001147,54.74114956779198],[83.18642996092721,54.74120455044262],[83.18699126994116,54.74110124548397],[83.18827141097104,54.741202783360116],[83.18884344882095,54.74137260162207],[83.19024110682784,54.74179737065719],[83.1918347932029,54.742684138059445],[83.19491487759244,54.74403554634717],[83.194791950198,54.74453123557931],[83.19376780057455,54.745175880748945],[83.19296404631054,54.74527346669289],[83.19004943666414,54.74625964345878],[83.18857249820378,54.74684973650058],[83.18759799458022,54.74689652156502],[83.1873745094809,54.74720397737096],[83.18685918949912,54.74751011569825],[83.18574322262342,54.7477624855723],[83.18494912082954,54.74782866437474],[83.18424034594776,54.7482671542324],[83.18329563073442,54.7486724510941],[83.18159989699693,54.74932598867723],[83.18003282823165,54.74962456078711],[83.17920637850477,54.74962490097926],[83.1784657594664,54.749488707751546],[83.1769690890532,54.749088621478364],[83.17614565199419,54.74871480377505],[83.17530075726306,54.7484775199321],[83.17481125467208,54.748406975879604],[83.1738925986388,54.748559856198256],[83.17237715165392,54.748040185842356],[83.17207138204328,54.747546989682256],[83.17109438768674,54.74758115067172],[83.16908742506845,54.747882184401476],[83.16910821246537,54.74751913882663],[83.16955815330482,54.74696989652466],[83.169621856046,54.746240656439575],[83.17054386567203,54.74558588335864],[83.17191581613748,54.74422665024178],[83.17202042339764,54.743804683618116],[83.17278083020764,54.74283643961501],[83.17384164442741,54.74204197495777],[83.17536918684756,54.74051563686822],[83.17316309431905,54.74015627018021],[83.16831639140163,54.74026934006791],[83.16516472698363,54.74023029782368],[83.16374714959869,54.74022663268726]]]},"properties":{"description":"Оранжевая зона II (Бердск)\nВремя доставки 90 мин.\nМинимальная сумма заказа от 1500 р.","fill":"#ff931e","fill-opacity":0.89,"stroke":"#ff931e","stroke-width":"3.201","stroke-opacity":1}},{"type":"Feature","id":4,"geometry":{"type":"Polygon","coordinates":[[[83.05013090538299,54.79804781448071],[83.04781772768487,54.79752120347744],[83.04620192433066,54.797509079364644],[83.04439300192743,54.797844079986476],[83.04261173429191,54.79734351593406],[83.04149565449215,54.796545402964895],[83.04028314589382,54.79621167269613],[83.03986457116396,54.79487989924032],[83.03903579140164,54.79266292886075],[83.03777785819702,54.79143778713629],[83.03611229800867,54.79084734171911],[83.03553700997993,54.79034442352178],[83.03511192565607,54.79030028620668],[83.03404641020671,54.78926501627561],[83.03274486036415,54.78886212598174],[83.03174035725179,54.787516917783506],[83.03095837266727,54.78621572979334],[83.03011201506648,54.78605539778248],[83.02913576890249,54.785396379774404],[83.02841701480398,54.785220998619046],[83.0276258021034,54.78414275180793],[83.0267473981304,54.78453993088118],[83.02649126664882,54.78450306050754],[83.02714043914796,54.783710699995055],[83.02792625078732,54.782154429627035],[83.02931287724604,54.78161509707313],[83.0318286,54.7823558],[83.03953705396725,54.78374342750259],[83.04431956721191,54.784389250330804],[83.04507897381897,54.78660884053986],[83.04577005768233,54.788514639012206],[83.04631093784083,54.78962676855079],[83.0464807470928,54.789749232366525],[83.04900904815288,54.7885929710489],[83.04966186745409,54.78824613917158],[83.05012775197345,54.787539507040464],[83.05029632121676,54.78727299001517],[83.0509760562397,54.7874109920846],[83.05195888088141,54.787766000625936],[83.05191425641388,54.78789437476227],[83.05122858399187,54.78831725415661],[83.05089793624566,54.788921200212876],[83.05156698783566,54.79134090411376],[83.0516628069465,54.79252357374148],[83.05218777949975,54.793929381603924],[83.05308826131501,54.794774125530125],[83.05345230132747,54.79547007614536],[83.05322102945414,54.796223016179056],[83.0535047417118,54.796913954459555],[83.05416872575151,54.79822141264402],[83.05610630074119,54.79938357656385],[83.05849448684533,54.800458931854294],[83.06076246538511,54.80087720724152],[83.06247254444972,54.80101036479678],[83.06285539168994,54.8013694445652],[83.06239404941928,54.80169092209424],[83.06166274851162,54.80233386944668],[83.06088267249145,54.80226240549338],[83.0569315986877,54.80077485109321],[83.05218659101563,54.79887194630077],[83.05013090538299,54.79804781448071]]]},"properties":{"description":"Оранжевая зона III (Бердск)\nВремя доставки 60 мин.\nМинимальная сумма заказа от 1400 р.","fill":"#ff931e","fill-opacity":0.84,"stroke":"#ff931e","stroke-width":"3.601","stroke-opacity":1}},{"type":"Feature","id":5,"geometry":{"type":"Polygon","coordinates":[[[83.09521469829407,54.81773060706122],[83.09515558917849,54.817490924866526],[83.09474652717441,54.81755956282224],[83.094101430777,54.817876023158135],[83.09248937290042,54.81862045422422],[83.0918120899948,54.81896788308976],[83.09092023036803,54.81907988606361],[83.0886859,54.8183498],[83.08923306322934,54.81331189153875],[83.08938196682053,54.81059824861779],[83.08944122484661,54.809458673285306],[83.08909278710254,54.80830667164395],[83.09026403164235,54.80815274184501],[83.0908373538193,54.80811519863432],[83.09166012143457,54.80806036231041],[83.09310683792195,54.80795926125857],[83.09398844649753,54.80789733279548],[83.1047866072708,54.806995022269845],[83.10530886521437,54.8082693052423],[83.10498968283387,54.811294283489126],[83.10527619989168,54.81384050914069],[83.103138,54.8151474],[83.10254864099974,54.815571440354155],[83.10094504350033,54.815532525516474],[83.09995298965634,54.815849873901975],[83.10012985499569,54.81619916372312],[83.10013135854098,54.816428020484196],[83.0984221090003,54.81661679729031],[83.09771475284664,54.81677591805772],[83.09762966918451,54.81705895177607],[83.09693378889337,54.81700545028697],[83.09662414670036,54.81753433894828],[83.09598652798121,54.81777399844027],[83.09544546878664,54.81782159487679],[83.09521469829407,54.81773060706122]]]},"properties":{"description":"Оранжевая зона IV (Бердск)\nВремя доставки 90 мин.\nМинимальная сумма заказа от 1500 р.\nПлатная доставка 150 р.","fill":"#ff931e","fill-opacity":0.7,"stroke":"#ff931e","stroke-width":"5.301","stroke-opacity":1}},{"type":"Feature","id":6,"geometry":{"type":"Polygon","coordinates":[[[83.0654490161895,54.73505087750356],[83.06104431202542,54.737094044646234],[83.05998106327581,54.73610681870296],[83.0584511101577,54.73532754568646],[83.05788029388727,54.735141008607584],[83.05746822219848,54.735804711581515],[83.05696690236202,54.73646109348475],[83.05646558252558,54.736931224889304],[83.05447204299163,54.738616735007554],[83.05318635714718,54.739677946403624],[83.05197472513119,54.73917280737788],[83.0508113779098,54.73869190453886],[83.04875447954153,54.74005190932993],[83.04799425125887,54.73969306635765],[83.04557529018629,54.73852468058652],[83.0452992183872,54.73828190548766],[83.04458182534046,54.738287777483194],[83.0410534772461,54.73860403823506],[83.03792102519652,54.73891434787594],[83.03355600266072,54.73939473514474],[83.03269930951646,54.741439390317844],[83.03095373671967,54.7419780094544],[83.02875005145326,54.74212415550346],[83.02784028147582,54.74173365216874],[83.02757977936098,54.74091051192115],[83.02735146375424,54.7400873548759],[83.02448064124754,54.73752754184607],[83.0204401264282,54.72488200453255],[83.02290662034599,54.72112178210305],[83.02590955606676,54.720292704487726],[83.0315147902282,54.72250571970642],[83.03205601376948,54.723600818201895],[83.03283798678589,54.725554124476304],[83.03395756317514,54.726124526148524],[83.0365577189407,54.72715442636651],[83.03789564949031,54.72817098946307],[83.03911238888548,54.72955829307239],[83.04159863968042,54.73107984223021],[83.04235271579631,54.7305667141658],[83.04367719470504,54.72985700629399],[83.04834456054375,54.729212447399924],[83.05065911611285,54.72813441750701],[83.05181557276222,54.725177185138726],[83.05236546994068,54.72195282538865],[83.05246540747773,54.7196458692356],[83.05339514080319,54.71869108830033],[83.05490423127581,54.717956773358274],[83.05546117841509,54.717870429179825],[83.05569626047263,54.71772818618886],[83.05642391665312,54.7172853176882],[83.05718787005439,54.71722118263748],[83.05751194117731,54.717275057303695],[83.05786819880838,54.717018379434606],[83.05834247363617,54.71683002212054],[83.05886628193161,54.717107633105],[83.06049862008751,54.71786781094796],[83.06232407729257,54.718305010271294],[83.06230883992001,54.71842654855185],[83.06788428592138,54.72096011790602],[83.06982981309056,54.72124044006334],[83.07084187281572,54.72134689880389],[83.0713818637543,54.72158998563858],[83.07337833809815,54.722124713083055],[83.0721885,54.7244332],[83.07255416508177,54.72498399749326],[83.0722761,54.7251622],[83.07300645650633,54.72658296391549],[83.07116554049071,54.72784553538629],[83.07285977595663,54.72816736065041],[83.07273010929254,54.72899834339377],[83.06893365833584,54.73090263414959],[83.0681110797899,54.73252605226822],[83.06769169325408,54.73406518309276],[83.0654490161895,54.73505087750356]]]},"properties":{"description":"Оранжевая зона I (Бердск)\nВремя доставки 80 мин.\nМинимальная сумма заказа от 1400 р.","fill":"#ff931e","fill-opacity":0.84,"stroke":"#ff931e","stroke-width":"3.301","stroke-opacity":1}},{"type":"Feature","id":7,"geometry":{"type":"Polygon","coordinates":[[[83.10251456665647,54.77048756444949],[83.10280273147583,54.77011469875781],[83.1032411,54.7696798],[83.10379222446431,54.76907140070265],[83.10424784957021,54.76879504563866],[83.10596538452944,54.76762182019369],[83.10669958585402,54.76710457158629],[83.10841270600751,54.765952233852275],[83.1095739471822,54.76515662189431],[83.11075929625304,54.764360994224816],[83.11358431227494,54.76248740734272],[83.12234799377897,54.75649550132197],[83.12278685768985,54.756198955555575],[83.12328158730799,54.755858584153714],[83.12373166203861,54.75555860548913],[83.12413108899594,54.755289262691946],[83.12459872142637,54.7549680529596],[83.12529959845294,54.75448033996002],[83.12571658401663,54.75420157405523],[83.12608367836516,54.75394189626836],[83.12658368332825,54.753828216217364],[83.12716770250849,54.753672781098516],[83.12803737694888,54.753492523561334],[83.12790402215781,54.75299430744617],[83.12768758850099,54.752310917032396],[83.12753023179269,54.75162751503225],[83.12742267515665,54.75069450909273],[83.12745777815555,54.75037083185742],[83.12757749287624,54.74928167475239],[83.12765737926934,54.748605979164786],[83.1277762021541,54.74783407424324],[83.12787555168714,54.74714051088514],[83.12799036553719,54.74637527692761],[83.12698918101005,54.74641472750343],[83.12647351127615,54.74653318960499],[83.12601685014063,54.74667337415533],[83.12535160210193,54.747024233961554],[83.1250135233602,54.74728726109848],[83.12452512050768,54.74723593195035],[83.12463729166262,54.746857183555754],[83.12387055774147,54.746475617054124],[83.1216000906837,54.74534407796892],[83.11941241967423,54.74693151230683],[83.11882602744667,54.746625165330926],[83.11747085277855,54.74640968552029],[83.11618088986162,54.7461205707772],[83.1140036965034,54.74550469495632],[83.11392197893802,54.74562624646769],[83.11293342731067,54.74534461442474],[83.11149895843455,54.74491363005712],[83.11099036461545,54.744931467742774],[83.11078320409975,54.74481507690039],[83.11023477261763,54.74462263858772],[83.10964752936616,54.74447362010319],[83.109582626437,54.74454145977447],[83.10848186091539,54.74483215871903],[83.10743281628264,54.74520279127343],[83.10490051006465,54.74603426365069],[83.10354066655417,54.74650343752206],[83.10135470266711,54.74715259296407],[83.10028725639944,54.746058297797205],[83.09791200003976,54.746775202750875],[83.09671165781089,54.74560647171992],[83.09629489087436,54.74605410956666],[83.0960336920607,54.74641795413443],[83.09426674945043,54.744514018581235],[83.09380221502127,54.7446563797686],[83.09357371498541,54.74478012006148],[83.09274120565156,54.74501828935859],[83.09240656265531,54.74515946105958],[83.08753820360675,54.744572791968935],[83.0859144453893,54.74430680443655],[83.08461738684088,54.74479700654143],[83.08409823867503,54.74518752623416],[83.08162248330088,54.74591743679125],[83.08088106318924,54.74656524810961],[83.08002001716319,54.74731080010741],[83.07932814288304,54.74791204167295],[83.07885763561666,54.748322899555994],[83.07842395660619,54.74869392203323],[83.0777099867537,54.748424151977375],[83.0773254263554,54.74836714513201],[83.07627264320809,54.748009372853026],[83.07534927400725,54.74775533909998],[83.07562013962274,54.74753259686522],[83.07517319779814,54.74733057355551],[83.07465920074812,54.747094413800525],[83.073604384558,54.74668105201678],[83.07294709336918,54.746458331448046],[83.07225210127402,54.746066232079095],[83.07113060714343,54.74564453068314],[83.07007406953187,54.74531153496662],[83.06971866944689,54.74523644348457],[83.06924055090883,54.745074129906854],[83.06876378490139,54.74493868203884],[83.06769243602301,54.744631273916895],[83.06732245188464,54.74451274695381],[83.06538015391465,54.74388229898662],[83.06443732420227,54.7433510093671],[83.06256116614887,54.74261862929705],[83.06200724666412,54.74240357379215],[83.06164774400975,54.74226895978919],[83.06111515222759,54.74275753837378],[83.06072407492769,54.74261207817282],[83.05743825815867,54.74120522134454],[83.05681151750501,54.74102026666472],[83.05610699278999,54.740839966701856],[83.0537789451579,54.740238048829475],[83.05288073732113,54.739976684916755],[83.05429146773677,54.73885217995923],[83.05650215764156,54.736943517336314],[83.05704134789514,54.73641432722603],[83.05753762280449,54.73583546479496],[83.05770797619772,54.7354738598128],[83.05790246947208,54.73517433443113],[83.058428759125,54.73534052038476],[83.05995416037543,54.73611433137407],[83.06102999142504,54.73713304483411],[83.0677399,54.73409],[83.06814773778233,54.7325313029186],[83.0689851006637,54.73090782680151],[83.07255841322933,54.73115421030761],[83.07601907301631,54.730922507264765],[83.0820596,54.7322808],[83.0833954,54.7324284],[83.0847715,54.7334995],[83.085654,54.7351157],[83.0837156,54.7360154],[83.0903656,54.7424212],[83.0956087,54.7388428],[83.1117598,54.726332],[83.11260170634455,54.725362293082846],[83.11498856508177,54.72546065813986],[83.11606625597516,54.72563932402676],[83.11692937014737,54.72619057055416],[83.11685315403388,54.726523056657655],[83.11790346570653,54.72755100466723],[83.11976916891982,54.727858641950064],[83.1169752144998,54.733112538659164],[83.11803161497174,54.7333187058542],[83.11908801544378,54.73372354456751],[83.12049306032715,54.7348213621435],[83.12133523545837,54.73473347785483],[83.12333612488403,54.73541542272236],[83.12509290927738,54.736005323759166],[83.12697843970336,54.73639655776027],[83.12779370487307,54.736413527452235],[83.12860897004278,54.7361821729575],[83.12861868722015,54.73599701287636],[83.12885370995485,54.73570631274254],[83.13000462126928,54.734338614299595],[83.13053017843474,54.73337255563126],[83.13070167020227,54.7329752176844],[83.13096972149428,54.73259650186493],[83.13125654824935,54.732206917196436],[83.1317901382339,54.73176765837912],[83.13207806962839,54.731491057412185],[83.13222652615414,54.731121321123844],[83.13261999873026,54.730822676152016],[83.13398051012594,54.7308540400312],[83.13460073183356,54.73093507537808],[83.1357654553685,54.72968523292676],[83.1376329491183,54.728946064768486],[83.13803059232784,54.72888369669894],[83.14125059900728,54.72996882966337],[83.14127341254108,54.7300853313661],[83.14049291923203,54.731007529804884],[83.14106566787646,54.731069909994744],[83.14193882393067,54.731355809918846],[83.14339545746542,54.731809636720435],[83.1436908885364,54.73204673445997],[83.1449892,54.7340962],[83.1537902564756,54.74119773175446],[83.1543813016052,54.743161081489305],[83.1501326880828,54.747846654884405],[83.1515489,54.7484606],[83.1527501,54.7495987],[83.15923318336296,54.75200354148894],[83.15871537912899,54.752384218763865],[83.15399471852417,54.75425711743623],[83.15343152488396,54.75443940717293],[83.14797598200066,54.755583503829136],[83.1491455656372,54.756382423833166],[83.15167240210187,54.75803778852826],[83.15251983236803,54.758756620605375],[83.15328143194567,54.75968639360921],[83.15535716174612,54.76234474207345],[83.15489647319559,54.76275039755145],[83.15350046482831,54.762663704905194],[83.15224393132982,54.76234746119286],[83.15169013659326,54.76244999256826],[83.1503414985511,54.762361992570746],[83.14967790836604,54.762175297940296],[83.14843496103379,54.76212509354593],[83.14760450242383,54.762184849239496],[83.14663023071171,54.76196933743835],[83.14408686672583,54.76198033625096],[83.14253055565746,54.76184243518099],[83.13847379594746,54.7627702315511],[83.13630578271017,54.76287764264866],[83.1354681451443,54.76263762810671],[83.13447951552038,54.76300134689937],[83.13315371591379,54.76295986162308],[83.13294371525741,54.762819112065934],[83.1308285578472,54.76290985374645],[83.12454303686705,54.76352574680672],[83.1208662,54.7636737],[83.1188362709112,54.76438372752277],[83.1173696057155,54.76517128836997],[83.11640451360564,54.76578668524041],[83.11577201541367,54.76647651430459],[83.11497183826313,54.76785296850259],[83.1131195,54.7694644],[83.1061147976696,54.77143813550436],[83.10528990490953,54.77134012208677],[83.10391906912686,54.770846361855256],[83.10330170710145,54.77117382487555],[83.1023888481323,54.77077428103647],[83.10251456665647,54.77048756444949]]]},"properties":{"description":"Желтая зона I (Бердск)\nВремя доставки 60 мин.\nМинимальная сумма заказа от 1000 р.","fill":"#ffd21e","fill-opacity":0.78,"stroke":"#ffd21e","stroke-width":"6.311","stroke-opacity":1}},{"type":"Feature","id":8,"geometry":{"type":"Polygon","coordinates":[[[82.8543911,54.8260142],[82.8510873,54.8253467],[82.84610977947771,54.82286982335633],[82.83701994230739,54.8197478794378],[82.83341194338266,54.8183232888545],[82.82950353704834,54.81521338381593],[82.82995888426201,54.814739838037994],[82.83107705126179,54.81353026944334],[82.83208792990108,54.81229587887072],[82.83277931150816,54.810781277351],[82.83452211904903,54.80908071228019],[82.83948793990477,54.80902729319199],[82.84192452301475,54.8098231072922],[82.84331447594677,54.80992356466681],[82.84444693681336,54.8095778531176],[82.844723488673,54.80978300218101],[82.8448283791557,54.810236019778486],[82.84623978975982,54.810795029657456],[82.849062610968,54.81050020799881],[82.84941779988243,54.81120304450518],[82.85182699224006,54.81165360230339],[82.8532920470245,54.81126143143534],[82.85351848990629,54.811939468821876],[82.85582039390334,54.81262548043989],[82.85726399101563,54.81271663631834],[82.85956993103939,54.813130098113085],[82.86187587106319,54.81309742603007],[82.8614352290557,54.813808301165686],[82.8631403542602,54.81432088932835],[82.86644407603747,54.81459802181155],[82.86605745807482,54.815182698788945],[82.86721579250481,54.81576736727609],[82.87004668576658,54.815974645085845],[82.87015245466912,54.81656605983455],[82.87103069976797,54.81715746589551],[82.87246684434197,54.81745147514527],[82.87398881960445,54.8173985292192],[82.87398220940854,54.81818183512765],[82.87517722885126,54.81856861981435],[82.87620058691704,54.81888105618539],[82.87735599611352,54.818715113233054],[82.87816808255613,54.81884654959637],[82.8775177421966,54.81928289052284],[82.87755404734496,54.82001659806145],[82.88435363785095,54.822233559431226],[82.88374580988729,54.82293649179617],[82.88118394260557,54.82512559564139],[82.88313492494486,54.825864527130285],[82.8823794332235,54.8265994471816],[82.88157970667767,54.82717108315451],[82.88065123409915,54.82683217934457],[82.8799956284545,54.82728922146172],[82.87939248545831,54.828832305051584],[82.87687748294216,54.829293932609794],[82.87284971454162,54.82952019310726],[82.87269505146634,54.82819627427614],[82.8683776,54.8281359],[82.8543911,54.8260142]]]},"properties":{"description":"Красная зона I (ГЭС)\nВремя доставки 115 мин\nМинимальная сумма заказа от 2000 р.\nПлатная доставка 200 р.","fill":"#793d0e","fill-opacity":0.69,"stroke":"#793d0e","stroke-width":"3.601","stroke-opacity":1}},{"type":"Feature","id":9,"geometry":{"type":"Polygon","coordinates":[[[83.27766266592411,54.663957659170826],[83.27509155971448,54.663625090901796],[83.27256336884912,54.663466661001436],[83.2692480861232,54.663912917228515],[83.26790690923227,54.66353822919444],[83.26635652003814,54.66334700833427],[83.26585755677787,54.66304383795099],[83.26900412882146,54.66151210398095],[83.27283734637295,54.66000519138952],[83.27649890254743,54.65846090217622],[83.27940944019771,54.657090722558316],[83.27828408434755,54.65657986993244],[83.26921922764889,54.65550323656528],[83.2592531487213,54.65567069577256],[83.22942367684936,54.65639644635822],[83.23309526520993,54.65300078824351],[83.23911959169921,54.64725761076374],[83.24812170185542,54.638490171301136],[83.25628114643553,54.63141351261792],[83.2630673,54.6240368],[83.2709054,54.6161403],[83.2777853,54.6126853],[83.2875199,54.6093538],[83.2986465,54.6089108],[83.313469,54.6086785],[83.3131878,54.6142288],[83.3171558,54.6177165],[83.3174736,54.618429],[83.3166325,54.6214401],[83.31519760907696,54.62298455268923],[83.3137627181539,54.622462094704154],[83.31023847730822,54.622214050084835],[83.30961656841659,54.621089152643314],[83.30843712364954,54.620837816233966],[83.30674342195124,54.62253906259242],[83.30310780092617,54.622322786542064],[83.30170841501995,54.621280789204725],[83.2995066850185,54.620162091812716],[83.29881772090145,54.620089341801936],[83.29513805158994,54.62740090178169],[83.29510353628169,54.62812490241045],[83.29494829563137,54.636154241220154],[83.29492242356244,54.637168037091655],[83.29490339488126,54.63898288242383],[83.29497043173824,54.6433861377075],[83.29493692088069,54.64442440442578],[83.29561151320308,54.645524865269614],[83.29650068224664,54.64634842062548],[83.29751859732299,54.64692308577451],[83.29881907921998,54.64740942505593],[83.30039851085459,54.64770910689198],[83.30207564548309,54.64807515161725],[83.30231511607964,54.648242100643515],[83.3026444691293,54.64866102708388],[83.30262758549324,54.649293558264404],[83.30426161534419,54.649812028480405],[83.30706926850084,54.65035713497623],[83.3075128642518,54.650480374335544],[83.30853581715003,54.65041697421027],[83.3089938552097,54.649916891666855],[83.31023509830167,54.64987718926311],[83.31206725054014,54.65004189208375],[83.3135131646804,54.65071052049403],[83.31463721373902,54.65135425317529],[83.31585854185707,54.65167963120078],[83.31707986997517,54.65181837396494],[83.3167474497375,54.65333512203391],[83.31644894848218,54.654060723750405],[83.31593587050564,54.65469922331826],[83.31553198704405,54.654744521704544],[83.31474567779301,54.656240958295356],[83.31524056231414,54.65658653061898],[83.31511317434386,54.65697564218708],[83.3157524,54.6586019],[83.31620618783563,54.65980338965954],[83.3153296,54.6606441],[83.31380694351652,54.66184056610332],[83.31312113624571,54.662066762269966],[83.31263379550774,54.66225234061983],[83.31199625106501,54.66223889461469],[83.30973410926205,54.66198809979897],[83.30872453088908,54.661758469968774],[83.30722142605737,54.66121785716976],[83.30529882883606,54.65998733384368],[83.30348136785274,54.65934464819704],[83.30187848359067,54.659012953367366],[83.30118218597558,54.65888340684862],[83.30044297301633,54.658915580545596],[83.29811530334493,54.65943972408943],[83.29776173950857,54.66057340158181],[83.29744548272154,54.660826133882054],[83.29633529206616,54.66152045939031],[83.29533799806622,54.66244261717285],[83.2937001027379,54.66311173119994],[83.29254856115585,54.663794564185615],[83.2921051227539,54.66421618025039],[83.29168721289746,54.66427113836095],[83.29169845648345,54.664475356436455],[83.29131324788514,54.66518852392836],[83.29090910452108,54.66553418495066],[83.28978612914104,54.665264163232244],[83.28874898444946,54.66549788177758],[83.28834842930027,54.66540329462964],[83.28816245087239,54.66525895501317],[83.28858435626752,54.664950023669604],[83.28846257181242,54.66486699971315],[83.2878113071319,54.664999468030864],[83.28741057293921,54.664692556359135],[83.287267330812,54.664348327329],[83.28663752380363,54.664232030361234],[83.2821571,54.6635703],[83.28096022446746,54.66296701766292],[83.28025687539363,54.66215226341789],[83.28078785716416,54.66407550002914],[83.27766266592411,54.663957659170826]]]},"properties":{"description":"Желтая зона I (Искитим)\nВремя доставки 100 мин.\nМинимальная сумма заказа от 1000 р.","fill":"#ffd21e","fill-opacity":0.79,"stroke":"#ffd21e","stroke-width":"3.301","stroke-opacity":1}},{"type":"Feature","id":10,"geometry":{"type":"Polygon","coordinates":[[[83.33772598068846,54.517544897707175],[83.33445373663935,54.51643007647902],[83.33096691586913,54.51441635592247],[83.33118705052486,54.51214659353974],[83.332008,54.5095271],[83.33316064096581,54.5061708742831],[83.33452785865283,54.50341379064149],[83.33753343383783,54.49762251749284],[83.34179994703364,54.50041231074688],[83.34280667584528,54.5009516782637],[83.34312675914914,54.50194061835802],[83.34559382777692,54.50379549744918],[83.34743204087209,54.50518826597822],[83.34836903173827,54.506680881362676],[83.35182713124631,54.507039934009626],[83.3527103101,54.50738649690875],[83.35572121279031,54.508703927652725],[83.35729445144858,54.51010871605119],[83.35805961310564,54.51016183914273],[83.35929684354937,54.50909123217697],[83.36001860391663,54.506619151676404],[83.36056870290697,54.50616985846186],[83.36128266278942,54.50595804920634],[83.36233994542575,54.50592105771693],[83.36322167912058,54.50659723033657],[83.36459890841213,54.50789959617621],[83.36572258391415,54.50705802354331],[83.36805576560666,54.50667347434365],[83.36806198042598,54.512479174937276],[83.36499614947509,54.51408946136646],[83.3611793,54.5156872],[83.36136707063706,54.516544012944436],[83.36099694179912,54.51745074185279],[83.36154414445032,54.51878978459492],[83.36066444391778,54.5186216825518],[83.3601494917991,54.519367753001006],[83.36014952381126,54.520138775114994],[83.35959168836057,54.52043253671113],[83.35728760845944,54.520252265464286],[83.3549620708862,54.52005951073077],[83.3539588,54.518201],[83.35107267301633,54.518185633102796],[83.3492273,54.5180594],[83.34773063464812,54.517934266714],[83.34700644549254,54.517609398405],[83.34607305131225,54.51788343327918],[83.34466750475465,54.518841434928405],[83.34336924655759,54.51887567826241],[83.33772598068846,54.517544897707175]]]},"properties":{"description":"Красная зона (Искитим)\nВремя доставки 120 мин\nМинимальная сумма заказа от 2000 р.\nПлатная доставка 200 р.","fill":"#793d0e","fill-opacity":0.86,"stroke":"#793d0e","stroke-width":"2.501","stroke-opacity":1}},{"type":"Feature","id":11,"geometry":{"type":"Polygon","coordinates":[[[83.31461846057434,54.627365972117936],[83.31471955078736,54.62546179820475],[83.31821919682007,54.62112342260645],[83.31920802327879,54.618016231457005],[83.3157543,54.6147218],[83.3160016,54.6093407],[83.31762970422969,54.60760394419773],[83.3214248269836,54.60663694277525],[83.32476929629519,54.60575706735046],[83.3277487,54.605202],[83.32676788527765,54.60690335080647],[83.32655954675167,54.609202489397774],[83.32804508953774,54.61756750324222],[83.32814681873096,54.620191832509754],[83.3236704,54.6285861],[83.315719,54.628548],[83.31461846057434,54.627365972117936]]]},"properties":{"description":"Оранжевая зона I (Искитим)\nВремя доставки 115 мин.\nМинимальная сумма заказа от 1500 р.\nПлатная доставка 150 р.","fill":"#ff931e","fill-opacity":0.82,"stroke":"#ff931e","stroke-width":"1.2","stroke-opacity":1}},{"type":"Feature","id":12,"geometry":{"type":"Polygon","coordinates":[[[83.3100888761962,54.602715217505036],[83.3081067018524,54.60272057252898],[83.3066998678451,54.60235610786169],[83.3054646952148,54.60129401255257],[83.30187855100398,54.59812322002426],[83.29530633712818,54.598153245809556],[83.2884265786408,54.597632531072996],[83.28821642161405,54.5933212206398],[83.28815425844493,54.591290001817484],[83.28799443082768,54.59058588118877],[83.28662705669191,54.58987244167774],[83.2839078492126,54.589620061323835],[83.28528080052482,54.586409411609225],[83.30997076004941,54.58832739142408],[83.31039948744757,54.5858527207103],[83.31146121617326,54.58317848658529],[83.31246836057429,54.58059675919356],[83.31378667440433,54.577674948307276],[83.31469162991446,54.576467763602075],[83.31578970447376,54.575435062954476],[83.31854923504197,54.57353552097282],[83.31987511082824,54.572580243145126],[83.32090057920492,54.5715626085085],[83.32171087829593,54.57025341061116],[83.32185371460339,54.568966359023094],[83.32212529694365,54.56775407496383],[83.32248287110228,54.566977206261704],[83.32425665162084,54.56745962393667],[83.32630217560956,54.56798806536362],[83.32694230263942,54.56832433652072],[83.32696195874465,54.567850373329996],[83.32728202225965,54.566890143412294],[83.3276825117625,54.56666498773746],[83.32873209584699,54.56669855030475],[83.32901548907788,54.56662181873553],[83.32919159394827,54.56638299729074],[83.33216465186767,54.56780767294722],[83.33272404921259,54.57074680887928],[83.3335497525161,54.572646437765385],[83.33266441500463,54.573496488732154],[83.33371026798395,54.574421317949415],[83.33647747354122,54.57747224609094],[83.33848716986941,54.58007720634588],[83.34077581593512,54.58159766394166],[83.33871213281859,54.585071155943304],[83.33812616850825,54.58859942039244],[83.33739000049319,54.59159157044232],[83.33600197960753,54.594232899201224],[83.33568684232782,54.59542877485419],[83.33644842488394,54.59672160888204],[83.33703834606318,54.59848783130709],[83.33619077502281,54.59978542469824],[83.33487113519587,54.60063449314645],[83.33285412102504,54.60109735386321],[83.33092293754268,54.60108681557085],[83.33105168622275,54.60169102343853],[83.33173833437799,54.6021706478059],[83.33201728941035,54.60259421745614],[83.33165251957396,54.603516085891115],[83.32729617196654,54.603605363165826],[83.3202147,54.6032711],[83.31796960078734,54.60362099103259],[83.31714070793453,54.60357225577243],[83.31567615263971,54.60360007045892],[83.31371016546638,54.60363724061313],[83.31334944437117,54.60375943241179],[83.31274779838182,54.603312507908925],[83.31226479296663,54.60296097510691],[83.31150283781392,54.60288349969972],[83.31070848836055,54.60242957218214],[83.3100888761962,54.602715217505036]]]},"properties":{"description":"Оранжевая зона II (Искитим)\nВремя доставки 115 мин.\nМинимальная сумма заказа от 1500 р.\nПлатная доставка 150 р.","fill":"#ff931e","fill-opacity":0.76,"stroke":"#ff931e","stroke-width":"3.101","stroke-opacity":1}},{"type":"Feature","id":13,"geometry":{"type":"Polygon","coordinates":[[[83.2089067,54.681418],[83.20912183862303,54.677531978968766],[83.20955155396723,54.675983389218295],[83.2111613,54.6738008],[83.21341448465574,54.671492633391125],[83.21807001163937,54.666877657159965],[83.22276845396725,54.66251093326551],[83.22937654232787,54.65647631202248],[83.2386446653442,54.656199168382244],[83.24780549999994,54.655959345656775],[83.25885447672118,54.65571168201945],[83.25205091534423,54.664822876414846],[83.24929186163936,54.668491354607106],[83.2470263343933,54.67187347215006],[83.24698986303596,54.67283666213548],[83.24039758866519,54.67682404535885],[83.23376239895018,54.680798601992926],[83.2279829,54.6795834],[83.2245426,54.6777739],[83.2221251,54.6786581],[83.2150154,54.680153],[83.2089067,54.681418]]]},"properties":{"description":"Оранжевая зона IV (Искитим)\nВремя доставки 115 мин.\nМинимальная сумма заказа от 1500 р.\nПлатная доставка 150 р.","fill":"#ff931e","fill-opacity":0.84,"stroke":"#ff931e","stroke-width":"3.901","stroke-opacity":1}},{"type":"Feature","id":14,"geometry":{"type":"Polygon","coordinates":[[[83.3242345460327,54.65321460892427],[83.32708025158993,54.65329865948107],[83.33012714921261,54.653315634079064],[83.33133609418029,54.653348654883374],[83.3319456,54.6532565],[83.3336486,54.652496],[83.3340348,54.6527412],[83.33436232294564,54.653692655603194],[83.33539796560663,54.66305074198809],[83.33300009737542,54.66307225674465],[83.32480865767208,54.664088858282916],[83.32117680555723,54.66289275717498],[83.31922143240206,54.662229472763165],[83.31915433439336,54.6617030085306],[83.31831750926206,54.655453884928],[83.31818344180293,54.6548964700409],[83.31857510740967,54.65442036564751],[83.31916183042595,54.65400480683252],[83.31992021481929,54.653738543415145],[83.32212362911375,54.65329310367664],[83.3242345460327,54.65321460892427]]]},"properties":{"description":"Оранжевая зона III (Искитим)\nВремя доставки 115 мин.\nМинимальная сумма заказа от 1500 р.\nПлатная доставка 150 р.","fill":"#ff931e","fill-opacity":0.79,"stroke":"#ff931e","stroke-width":"1.2","stroke-opacity":1}},{"type":"Feature","id":15,"geometry":{"type":"Polygon","coordinates":[[[83.06726209323878,54.86735017067762],[83.06987727466804,54.86695842221486],[83.07051431312898,54.866691384383564],[83.07149467434382,54.86662236224548],[83.07240400377418,54.866616315722034],[83.0735493675979,54.866350371013525],[83.07495222348706,54.86630100791833],[83.0748745,54.8658061],[83.0747243,54.8602579],[83.07646219999997,54.859847062474145],[83.09092464232783,54.85957550887589],[83.0970946,54.8573889],[83.1013125,54.8590862],[83.10236927883602,54.85957877634489],[83.1034046,54.8599847],[83.1042586,54.8603574],[83.1052405,54.8607822],[83.1059168,54.8610649],[83.1062713,54.8612025],[83.1093835,54.8625336],[83.112622,54.8639529],[83.1156462,54.8653475],[83.1165903883606,54.86580964219592],[83.11689215145108,54.86578393647953],[83.11725760971751,54.865950539899956],[83.11705410075257,54.866386562702466],[83.11755316108943,54.866728332798615],[83.11807367909846,54.866909212678095],[83.11611604232787,54.87251731978973],[83.11809017301633,54.87242223236618],[83.12043980185238,54.87230770222237],[83.12367999444275,54.872177807705114],[83.12366916983643,54.87532626750419],[83.12354042619629,54.87714740660642],[83.12271430701595,54.876792833557666],[83.12146976322931,54.87668571729761],[83.11781658795925,54.876204171369636],[83.1166390949058,54.87649543946709],[83.11579285631369,54.87686378559116],[83.114667667984,54.87718263715668],[83.11143559290691,54.87762720894611],[83.11071406546782,54.877663480243264],[83.10957277892497,54.87796309268421],[83.10853878074266,54.8783493101044],[83.10722180290223,54.879220711321494],[83.10548641976695,54.8803467690224],[83.10306439112392,54.88002530568176],[83.10081671216425,54.87898646128365],[83.09573113862304,54.87594970525691],[83.0947227047546,54.87557455148674],[83.09436869152525,54.87445896069201],[83.09367135554196,54.87361556570715],[83.09280217116387,54.872856977021954],[83.07660359086024,54.87552099954085],[83.07436560257726,54.874935399494376],[83.07021788147581,54.87163986393067],[83.06730019277518,54.86837810422778],[83.06722448703309,54.867960397432896],[83.06726209323878,54.86735017067762]]]},"properties":{"description":"Зеленая зона (Академ)\nВремя доставки 55 мин.\nМинимальная сумма заказа от 600 р.","fill":"#1bad03","fill-opacity":0.76,"stroke":"#1bad03","stroke-width":"2.601","stroke-opacity":1}},{"type":"Feature","id":16,"geometry":{"type":"Polygon","coordinates":[[[83.09968998467305,54.80741246104422],[83.09612666999674,54.80771000825932],[83.09346407031786,54.8079245546968],[83.0902543,54.8081391],[83.08909818035656,54.80828204478354],[83.088366,54.8063875],[83.08793154140166,54.805190127101625],[83.0875292693115,54.80402680580619],[83.08675875538614,54.80268093209493],[83.0857535991082,54.801355634858055],[83.08442918304942,54.79975703224876],[83.08334827361394,54.7982696724504],[83.08236661973511,54.79681931642124],[83.07990107014463,54.79348058666038],[83.07527577368009,54.79292728574353],[83.0750493,54.7903157],[83.07458469510644,54.78880629919336],[83.07339052936094,54.787991264221425],[83.07336254180295,54.787278793188136],[83.07327011970517,54.78653383633933],[83.07364976639401,54.78598728077637],[83.0766192,54.7844477],[83.07837187116392,54.78321779571561],[83.08012454232788,54.78298001306116],[83.0836728,54.783571],[83.09033244206546,54.78311788170562],[83.0964771,54.7844754],[83.1021807,54.7866917],[83.1069680693115,54.786768882732005],[83.10900450898437,54.78533126426096],[83.11155593278808,54.78374477551438],[83.11499038855737,54.782038427224336],[83.11945481258846,54.78082810968109],[83.12210273366922,54.78142379573297],[83.12535146956934,54.78177142955937],[83.12807239107666,54.78291315755999],[83.12876059563902,54.78439440319762],[83.130822091217,54.785280344581764],[83.13601640692443,54.78631507645828],[83.14136014680936,54.78596437753439],[83.14331835427203,54.7849466207152],[83.14467574691541,54.78348238008785],[83.14332947287177,54.7812243418433],[83.14048911096589,54.780479757892266],[83.14064805621025,54.780095166626644],[83.14132198558548,54.77983459994787],[83.14223194935396,54.779648448826315],[83.14865216408734,54.77998947182018],[83.1570894,54.7808514],[83.15805254313045,54.781617736829816],[83.15962845597376,54.78107072863123],[83.16066317562475,54.78101426507264],[83.16315701697995,54.7824460691353],[83.16666044214168,54.785262205364326],[83.1685116265502,54.790768912569284],[83.1670029990264,54.79089470171855],[83.16519396409296,54.79067330689779],[83.16299125746302,54.79094699173108],[83.16100312755428,54.79067510187438],[83.15840015875243,54.791867228013906],[83.15144789790033,54.79740272736591],[83.14861549763789,54.79532285181554],[83.14522519167171,54.79465482267171],[83.14387336144254,54.79533745528097],[83.14295068309855,54.79540601195972],[83.14258590422975,54.79577211914918],[83.14033680448836,54.79590689865732],[83.13950391110684,54.79641361041099],[83.13768792063904,54.79750139902497],[83.13349012856594,54.79787012414846],[83.12907775977168,54.79929878712095],[83.11955129895016,54.80070331268838],[83.11829892907942,54.800948409357424],[83.11355649072074,54.80052735432638],[83.1111314809509,54.80013108801422],[83.10824602513122,54.80060073553924],[83.10569822710718,54.80076427823733],[83.10502395707849,54.800808164633175],[83.10436041588594,54.80098841040219],[83.10356977530378,54.80134270142821],[83.10374403701552,54.801831297215905],[83.10383246803873,54.80235087676683],[83.10393976706943,54.80322372577634],[83.10420663091621,54.80444414878912],[83.10452624293754,54.805666346700136],[83.10479194100034,54.80696436951878],[83.09968998467305,54.80741246104422]]]},"properties":{"description":"Желтая зона II (Бердск)\nВремя доставки 90 мин.\nМинимальная сумма заказа от 1500 р.\nПлатная доставка 150 р.","fill":"#ffd21e","fill-opacity":0.8,"stroke":"#ffd21e","stroke-width":"3.901","stroke-opacity":1}},{"type":"Feature","id":17,"geometry":{"type":"Polygon","coordinates":[[[82.91070390918979,54.84162990023418],[82.90677133728792,54.84145761033691],[82.90285240317415,54.84074600280187],[82.90190144670682,54.84198884961586],[82.9009461485371,54.84262046323176],[82.89990501967903,54.84404458809682],[82.89598856275701,54.842793935686025],[82.890098,54.8412708],[82.8885021,54.8407858],[82.88829429444269,54.84043220431348],[82.88860147301634,54.83965753903695],[82.89079555396724,54.83679767376844],[82.89268910740962,54.834734147890934],[82.89361706560666,54.8337233570424],[82.88720386408377,54.831364807804384],[82.88701338747548,54.831111966555675],[82.88124655855708,54.82902069114312],[82.87945687196654,54.82881371759111],[82.88003878545827,54.82730103964098],[82.88067306495815,54.826860582660196],[82.88159101952738,54.827197825834155],[82.88238022806392,54.82663072401095],[82.88320616957964,54.82585107606287],[82.88122644747901,54.825132589437224],[82.8837986916798,54.82296348118502],[82.88438976670986,54.82227189731339],[82.88591619090103,54.82243088336959],[82.88731386905951,54.822292516501676],[82.8878544414675,54.82288047259338],[82.88800877577734,54.82341886261495],[82.89142467624924,54.824105915693075],[82.89503369577021,54.82505312424057],[82.89904550966332,54.82582497691693],[82.90065406427914,54.82563050806757],[82.9082270809509,54.82671580966082],[82.91362115132746,54.82842085093885],[82.91509509920496,54.83031388719128],[82.91493826400142,54.83111679257543],[82.91704486770625,54.832193936151995],[82.91824837326351,54.83320318165407],[82.91807764984588,54.83433948650286],[82.91863601830059,54.83521727162072],[82.92065350845944,54.83647898534993],[82.92123681586911,54.839351227013196],[82.92146409206542,54.84070787310159],[82.91959902125532,54.84137217859936],[82.91070390918979,54.84162990023418]]]},"properties":{"description":"Оранжевая зона I (ГЭС)\nВремя доставки 90 мин.\nМинимальная сумма заказа от 1500 р.","fill":"#ff931e","fill-opacity":0.78,"stroke":"#ff931e","stroke-width":"3.101","stroke-opacity":1}},{"type":"Feature","id":18,"geometry":{"type":"Polygon","coordinates":[[[82.93428320977168,54.87261101136948],[82.92839303488765,54.87272075498167],[82.92734132327878,54.86702734781779],[82.92686897857354,54.86129837706748],[82.92564856322934,54.85829199248289],[82.92278675714718,54.858615878946516],[82.92202039424582,54.85823040458049],[82.9212111160003,54.85809250109824],[82.92057961242675,54.85702444325934],[82.9202822005249,54.85470254673426],[82.92126602768685,54.85373459563022],[82.92224985484887,54.852618056935555],[82.92220248826118,54.85193707846249],[82.9236593843436,54.85154706209272],[82.92425797354127,54.851008471726956],[82.92635146190186,54.85082616806192],[82.92743039259031,54.850951682110185],[82.92850932327877,54.850804816080924],[82.93030235026244,54.850431508650445],[82.93001300746377,54.84909399836213],[82.93047468318937,54.848685073573215],[82.93195593411552,54.84747099058209],[82.93163773223434,54.84685823158677],[82.93072944436989,54.84662312292605],[82.9300464620627,54.84646230661308],[82.92946893651576,54.84604757470394],[82.9299213792306,54.845769046139075],[82.92848809706717,54.8451601176748],[82.9273174424361,54.84493644382697],[82.92621116082151,54.84463847178421],[82.9257342460327,54.844177163959095],[82.92053529629517,54.84230596162225],[82.91971456943509,54.84139092901355],[82.92157605158992,54.840723557228515],[82.92143663491821,54.839871771290696],[82.92075946798403,54.83640387316155],[82.91873805611515,54.83518341753622],[82.91820795245856,54.83432212097194],[82.91834937478414,54.833181636039626],[82.91712957283805,54.83214654089084],[82.91509516770627,54.83114156657423],[82.91526472801816,54.83037744440641],[82.9193825,54.830307],[82.92190979418025,54.83038184218176],[82.9244800037048,54.830952169547345],[82.9270931285736,54.83110133266453],[82.92757357063138,54.831541328483624],[82.930543102655,54.831560168153445],[82.93082843900906,54.83206184488327],[82.93290229767678,54.83207733410466],[82.93437534152527,54.8317707677067],[82.93442145017772,54.83234985246427],[82.93543155742142,54.83267655130388],[82.93850160118863,54.83268119917489],[82.93880896967042,54.833264912770545],[82.94121919001992,54.8341706568664],[82.94342179472046,54.83437193575199],[82.94326034574216,54.83472870991678],[82.94477259518922,54.83501116616013],[82.94599464962536,54.8350063296094],[82.94565029399682,54.8354102226535],[82.946164245253,54.83573979823161],[82.94852045768735,54.83579476582841],[82.94828793017021,54.83629628209774],[82.9485274714397,54.83659962755253],[82.94980048784711,54.83674805920513],[82.95085892753332,54.83666117035196],[82.95135946774441,54.83684675751862],[82.95130396602231,54.83700612122186],[82.9508836838741,54.83701686233057],[82.95075122275767,54.83738512810169],[82.95098890648534,54.83795154937609],[82.95200979524535,54.8386108479933],[82.95279277170025,54.83884627951078],[82.95368303651578,54.83935416885398],[82.95537773545833,54.839732139293446],[82.95590008137788,54.84007716575486],[82.95597181618295,54.84043457339427],[82.95667318526816,54.840567330982815],[82.95777551602893,54.84074615667267],[82.95775605572746,54.841275384981046],[82.9579726298193,54.84145786090803],[82.95937137324843,54.8418971124427],[82.96098868814009,54.84202020585453],[82.9591752862686,54.84293361228793],[82.95715780793454,54.84277906590421],[82.95649155292098,54.843245014719436],[82.95524594076022,54.84395861985638],[82.95484790664814,54.844545288125936],[82.95481465296206,54.84516909587873],[82.95617603397888,54.84587609931488],[82.95546674963624,54.84640973859802],[82.95430567301634,54.847266501983114],[82.95341769299155,54.84787858531192],[82.95257673604502,54.84853440625281],[82.95178942327875,54.84912830926837],[82.9567318,54.8513712],[82.96147323107455,54.8535883450527],[82.95912082798252,54.85520772119029],[82.95893496326029,54.855961918047576],[82.95833441645955,54.85642876048979],[82.95786798010963,54.856644920771046],[82.95735312998802,54.856756868934845],[82.95679000010412,54.856748120699024],[82.95676612824165,54.857023079655406],[82.95679268303024,54.857511627649515],[82.95647659034778,54.85803132664671],[82.95554055515595,54.85961887435212],[82.95496676327396,54.860278727833105],[82.95401746212987,54.86101283728953],[82.9528082823902,54.86201150286888],[82.9523891161341,54.86228029793755],[82.9505448693637,54.86277284953802],[82.9510609665265,54.863376788807315],[82.9513636,54.8641267],[82.9472303,54.8649136],[82.9452549,54.865264],[82.9435478,54.8656082],[82.94308669881134,54.86652817301962],[82.94269556157046,54.86730632608528],[82.94248956506094,54.86750509139563],[82.94265371339553,54.86783380065244],[82.9431987354102,54.86875034323399],[82.94269877022126,54.868803314757706],[82.9414156,54.8688996],[82.94139134788512,54.86935078455207],[82.94129991244196,54.87252601595066],[82.93428320977168,54.87261101136948]]]},"properties":{"description":"Желтая зона I (ГЭС)\nВремя доставки 90 мин.\nМинимальная сумма заказа от 1000 р.","fill":"#ffd21e","fill-opacity":0.79,"stroke":"#ffd21e","stroke-width":"5.201","stroke-opacity":1}},{"type":"Feature","id":19,"geometry":{"type":"Polygon","coordinates":[[[83.02459825202571,54.903136453854295],[83.02186619919893,54.90340797100673],[83.02160655494885,54.903621134901485],[83.02121816466602,54.90371065163571],[83.02091315139155,54.905585330279905],[83.01944942382266,54.9053828050991],[83.02065355286517,54.90781376047937],[83.02029286637608,54.91218161933241],[83.01930851215076,54.91577453775387],[83.00999970311881,54.91793094242309],[83.00801357047342,54.91927385427849],[83.00770113625336,54.921234686730344],[83.00524293482135,54.92120563729126],[83.00312805614334,54.9226102334015],[82.99837787086594,54.92669212396129],[82.99942666906367,54.928238634071015],[82.99739004124751,54.93014968463519],[82.99518444730717,54.930409130516196],[82.9914101701581,54.930738400101966],[82.98255822740693,54.9307608630126],[82.97359899629512,54.930721544515734],[82.96500698818544,54.930986716717264],[82.9500669,54.925268],[82.9454974338173,54.92351337964636],[82.9445143565916,54.922916774956754],[82.94490457038152,54.92071347453315],[82.93804209099518,54.92051233216937],[82.9354691581868,54.9203005252165],[82.93451478873891,54.91977790873793],[82.933903742045,54.91895864849631],[82.9334326671814,54.916491920749415],[82.93248846969429,54.911362639395136],[82.93155753065794,54.906447462399775],[82.94792349736016,54.90454045765635],[82.95023468882442,54.90552665726881],[82.9615032834839,54.901472554156946],[82.9777151,54.8956684],[83.0081116,54.8977789],[83.0225313,54.8956437],[83.02459825202571,54.903136453854295]]]},"properties":{"description":"Оранжевая зона II (ГЭС)\nВремя доставки 115 мин.\nМинимальная сумма заказа от 1500 р.","fill":"#ff931e","fill-opacity":0.71,"stroke":"#ff931e","stroke-width":"4.701","stroke-opacity":1}},{"type":"Feature","id":20,"geometry":{"type":"Polygon","coordinates":[[[83.0081116,54.8977234],[82.9776829,54.8956067],[82.9743593,54.8921266],[82.9902069,54.8904115],[82.9904739,54.8798591],[83.001521809787,54.8785524757527],[83.00365518330763,54.88109060711217],[83.00468353796309,54.88084487411519],[83.0051334933853,54.880848063051815],[83.00796459472043,54.879907996834305],[83.00878300386702,54.880086739145675],[83.01336668360594,54.87869983441457],[83.015866980426,54.88277161094424],[83.02008389101563,54.88728828547481],[83.02255214049069,54.89144774268068],[83.0225313,54.8955573],[83.0081116,54.8977234]]]},"properties":{"description":"Желтая зона II (ГЭС)\nВремя доставки 90 мин.\nМинимальная сумма заказа от 1000 р.","fill":"#ffd21e","fill-opacity":0.78,"stroke":"#ffd21e","stroke-width":"3.201","stroke-opacity":1}},{"type":"Feature","id":21,"geometry":{"type":"Polygon","coordinates":[[[83.0060923279251,54.88050931338808],[83.0050288197204,54.880838629852555],[83.00466872699492,54.88078678302713],[83.00370781945017,54.88104422767324],[83.00157007420502,54.878498525844726],[82.99228960674586,54.87958464649264],[82.99047464484246,54.87982064409211],[82.99036032931343,54.877811802763745],[82.98664112486837,54.87788150964904],[82.98006102286298,54.87777347137415],[82.97968959143539,54.87537974161294],[82.97223047720671,54.87546724318595],[82.9724828229377,54.872746793920385],[82.94176836016092,54.872862287603],[82.94149389549403,54.87275372701457],[82.94140182104019,54.87257092085222],[82.94144161555478,54.869346732235215],[82.94148532209006,54.86890429146351],[82.94272691373186,54.868841714348825],[82.94325115002817,54.86876247110277],[82.94271323155466,54.86784168997031],[82.94254916729784,54.86751146150703],[82.94274988346699,54.86732355280109],[82.94362820674586,54.8656406470302],[82.94825220674592,54.86475284706441],[82.94991250674586,54.86445294707593],[82.95147623372941,54.86417151231121],[82.9512111630904,54.86346489163343],[82.95058097815694,54.862793015421374],[82.95242236057418,54.86228540414427],[82.95291389834057,54.86197357663754],[82.95323913914798,54.86167412430714],[82.95430536936283,54.86082319198351],[82.95499265448882,54.86029023542574],[82.95557271097552,54.85961260159024],[82.95683989293077,54.85752630897378],[82.95682243928664,54.85677236656071],[82.95739659950775,54.85677427175203],[82.95787420020439,54.85665857536056],[82.95833587513877,54.856442655574384],[82.95894808876174,54.855992243516205],[82.95915327658221,54.8552275797855],[82.96153763107449,54.85356511230697],[82.95190207420491,54.84910508474673],[82.95336241230308,54.84802155672523],[82.95627102792498,54.84586695620357],[82.95490661150046,54.84515185863034],[82.95489300010185,54.84461336530371],[82.9553012100308,54.844008068634935],[82.95706125330338,54.84295696449495],[82.95718369468506,54.84283515555764],[82.9591944112133,54.84297339748026],[82.96042634689434,54.84239542544711],[82.96119694262478,54.84287314231531],[82.96325499868239,54.843257979133455],[82.96375206201971,54.84348781770485],[82.96549367034001,54.8437052718477],[82.96665945839179,54.84370676955625],[82.96747119485359,54.84419739771114],[82.9672869771012,54.844585112620805],[82.9671711852286,54.84484611284972],[82.96733434309374,54.84513187677256],[82.96804689692206,54.845356686749355],[82.96814262979645,54.84596888903147],[82.96953655183384,54.84599911252836],[82.9685808587744,54.846215071717936],[82.96910615841625,54.846954544169016],[82.97128369881126,54.847545419983234],[82.97318229510641,54.84788306584075],[82.97615380674583,54.84946874765344],[82.98155026627033,54.852188293816816],[82.98494459510644,54.85048812794569],[82.99138603876186,54.85463716898022],[82.99505987553242,54.8580877325767],[82.99703874617143,54.86045134722511],[83.01028193135225,54.87465178063191],[83.01222354955343,54.87675583275496],[83.01325135966331,54.878689080836104],[83.00974965251606,54.87971690339457],[83.00872835979446,54.88002976149546],[83.00798601681048,54.879847740914464],[83.0060923279251,54.88050931338808]]]},"properties":{"description":"Зеленая зона (ГЭС)\nВремя доставки 70 мин.\nМинимальная сумма заказа от 600 р.","fill":"#1bad03","fill-opacity":0.87,"stroke":"#1bad03","stroke-width":"3.601","stroke-opacity":1}},{"type":"Feature","id":22,"geometry":{"type":"Polygon","coordinates":[[[83.05293227601689,54.7857207772013],[83.05203180918114,54.786939295849855],[83.05197405705462,54.7877551520088],[83.05098747204376,54.78739761365047],[83.05030665886066,54.78725398167006],[83.05076314523009,54.786655245668605],[83.0532742037048,54.783284806558896],[83.05381915696331,54.782497546139304],[83.05439629673003,54.781657560827135],[83.0544086497231,54.781327597920985],[83.05407735203121,54.78086418166452],[83.05362803714269,54.78036975349383],[83.0534911547259,54.7800692365402],[83.05364257340192,54.779710548505605],[83.05385233596753,54.77962112419899],[83.05419084456597,54.77954410260101],[83.0546658706928,54.7795753580322],[83.05551640608182,54.77975544768766],[83.05598070337265,54.77981150859346],[83.05639135648332,54.77966912420999],[83.05765814351642,54.778270746385694],[83.05754049126284,54.77784626301581],[83.05701983094136,54.777515854158814],[83.0564133399315,54.77714513080465],[83.05633761453402,54.77694944011648],[83.05643292696836,54.776756516439995],[83.05667719601747,54.77651331059915],[83.05712481743024,54.77620087915453],[83.05808891782478,54.77601675357387],[83.05861313594089,54.776186140707786],[83.06000190522535,54.77671173622586],[83.06137396627045,54.776144224710634],[83.0625501509262,54.77564499753502],[83.06376388650818,54.77514886523836],[83.064864940213,54.774547425476655],[83.06582651904908,54.773899459388076],[83.06690761334684,54.77316345389003],[83.06824313439327,54.772294405926985],[83.06920670370484,54.771698894878796],[83.0699609681228,54.77129283310125],[83.06565997354126,54.77048578168676],[83.06724604774794,54.76796027441193],[83.0667014085094,54.76737700525501],[83.0660816674185,54.76691779569018],[83.06551154719429,54.76669857664828],[83.0649789778963,54.76646384775172],[83.06463952764743,54.76619189649172],[83.06177882698358,54.764058619168466],[83.05960095330163,54.7624878098327],[83.05710630413037,54.760972062513105],[83.05654749496762,54.76071693766111],[83.05576592757798,54.76023074272457],[83.05419042631988,54.75922025855914],[83.0540377147634,54.75899553827006],[83.05384745228072,54.758628109611635],[83.05299485852886,54.75795529001253],[83.05255567368013,54.75740384662676],[83.05138233878311,54.75688154904368],[83.04950626512422,54.756241349187],[83.04912297232917,54.75601579477574],[83.0485843494633,54.75583456172072],[83.04671535092616,54.7550141947707],[83.04621775843508,54.754801532419336],[83.04596156475533,54.75475020617602],[83.04575267704851,54.754272364683835],[83.04527556844033,54.753974474100346],[83.04527621763316,54.75380686194149],[83.04545990623184,54.753713647836605],[83.041381,54.748891],[83.04093606484805,54.74889687150599],[83.0406921396,54.748390898421796],[83.04053404504052,54.747723554291895],[83.0405735526923,54.74670536581747],[83.04089938704297,54.745581805602356],[83.0402593349231,54.7440906451283],[83.03940470608202,54.74349945418703],[83.03933007698355,54.743041529554496],[83.03961450932759,54.742750145249744],[83.03957433528662,54.74234995895861],[83.03961999193412,54.74218564298557],[83.04018337401574,54.74137284057904],[83.04078967144162,54.74129249424354],[83.03956414814752,54.739419237520195],[83.03931494893483,54.73879366518179],[83.04306149656448,54.73844878952651],[83.04465571953504,54.73829674596645],[83.04528695259914,54.73829387276296],[83.04556447403215,54.73853143571532],[83.0479815476074,54.739716062645776],[83.04875825924681,54.740080335835216],[83.0508113779098,54.738716704487324],[83.05199622698365,54.739197618835085],[83.05318640132748,54.7396948493148],[83.05284873536189,54.73998404570943],[83.05372342787102,54.74023599505806],[83.05667444252788,54.74099594438454],[83.05742211958149,54.741208479061015],[83.05836458641944,54.74161350997733],[83.05872167243076,54.741761718784076],[83.05956808218384,54.742122395363566],[83.06032463793488,54.74244427399109],[83.06071308308017,54.74261259858968],[83.06111762147955,54.74276230116683],[83.06165177185423,54.74227428745839],[83.06214300688472,54.74245975006631],[83.06442973817902,54.743356536408996],[83.06499985570373,54.74368226567492],[83.06536761455685,54.74388681926307],[83.067691,54.7446373],[83.0692317,54.7450753],[83.06971300416025,54.74524009794227],[83.07006943332861,54.745316128651005],[83.07112323684096,54.74564663337469],[83.07220892223084,54.746081094422955],[83.07293318359459,54.7464696691363],[83.0735938558891,54.74669132885517],[83.0746420873558,54.74710582753325],[83.07560180592509,54.747534286303996],[83.07533204353324,54.747757701298056],[83.07627062275387,54.748018338951105],[83.0773200175979,54.748372970187425],[83.0777042246063,54.7484296999654],[83.07842972327879,54.7487045207065],[83.08163107182764,54.74592273108103],[83.0841028595245,54.745195231621246],[83.08463560679483,54.74480262468627],[83.0859193725894,54.74432311784195],[83.08753203776915,54.74461167842454],[83.09240960888194,54.74518879340416],[83.09277558950902,54.74504089603217],[83.09362436775879,54.744793689477575],[83.09389498906238,54.74465926892797],[83.09424791342477,54.74454236809498],[83.09523133519588,54.745608891478035],[83.09605186322936,54.746478434243556],[83.09633971989221,54.74602561749433],[83.0967134072437,54.74562244906528],[83.09790066422497,54.74679912228375],[83.10029663585966,54.746074009044456],[83.10134328472515,54.747191406989515],[83.10357546997523,54.74651822902357],[83.10513984446038,54.74597416166299],[83.10753570374018,54.74519112829586],[83.10847577015439,54.744847772097316],[83.10959211145466,54.74455215642111],[83.109646840335,54.744489929184816],[83.11019618037423,54.744630911988665],[83.11075841864955,54.74482245707124],[83.11098167297128,54.74494224782344],[83.11149255463104,54.744926655570126],[83.11307761581111,54.745402172293524],[83.11392775172115,54.74563562406273],[83.1140079692963,54.74551289254029],[83.11617469678971,54.74613015396615],[83.1174718911717,54.74643367734609],[83.11878670792008,54.74663851871108],[83.11941541349178,54.746961748309566],[83.12159604695886,54.74535236609902],[83.12462425847471,54.746858693187946],[83.12450607160078,54.747243534747454],[83.12502088605451,54.74729943412625],[83.12537459829012,54.74702798590922],[83.12603106079014,54.74668524435208],[83.12647965209143,54.746542660934274],[83.12699798082721,54.74642490321829],[83.1279769544921,54.746382123382546],[83.12763935507522,54.74858587623367],[83.12740904401886,54.75069642038339],[83.12751943349068,54.751631260404714],[83.1276791713611,54.752330123275215],[83.12790328224791,54.75302276850808],[83.12802667432854,54.75348839902752],[83.12715228465574,54.75366857531182],[83.12607400185237,54.75393786618875],[83.12450219259033,54.75500763735378],[83.12104919609898,54.75736519856561],[83.1095612790985,54.76510491581038],[83.10751564099306,54.76651382170573],[83.1064230845059,54.76724617122857],[83.10541635870725,54.76795369452105],[83.103770839403,54.76904006746867],[83.103048,54.7696798],[83.10147341751214,54.771706188255806],[83.09998466571285,54.77298818658576],[83.09732710185237,54.77484210434055],[83.09352584397199,54.77738196165976],[83.09223513372953,54.77684565211794],[83.0898704826297,54.775684410501725],[83.08791352730023,54.775912408936],[83.0866389103119,54.776021091976425],[83.08308709364005,54.7753686792655],[83.08216384180291,54.77512559852841],[83.0796557878974,54.77395776120878],[83.07757688743435,54.77343494359468],[83.07367657857358,54.77350573144651],[83.07206967897544,54.773814033309186],[83.07090266165575,54.774165748771985],[83.07019941009739,54.77468310502482],[83.06897044557212,54.77534310305661],[83.06756981966991,54.77582943410408],[83.0675795229131,54.77611366511563],[83.06670946159942,54.776385490264836],[83.06546389102367,54.77702322354815],[83.06415394743149,54.77745008710864],[83.06359399677063,54.77790689382282],[83.0619254306884,54.77829128200586],[83.06056169206542,54.77854709807313],[83.05911212275392,54.77894554819006],[83.05838786878655,54.779427083950836],[83.05762069947504,54.78002644022561],[83.0563867,54.7813111],[83.05517945886074,54.78238891147706],[83.05407950608212,54.783603112441156],[83.05293227601689,54.7857207772013]]]},"properties":{"description":"Зеленая зона (Бердск)\nВремя доставки 60 мин.\nМинимальная сумма заказа от 600 р.","fill":"#1bad03","fill-opacity":0.78,"stroke":"#1bad03","stroke-width":"3.201","stroke-opacity":1}},{"type":"Feature","id":23,"geometry":{"type":"Polygon","coordinates":[[[83.3197552,54.6512264],[83.3186606480087,54.649886133591714],[83.31868189496764,54.64794854420897],[83.31898188095093,54.644272199995235],[83.31981611190183,54.64062916671768],[83.32092929259031,54.63718495329163],[83.3211386,54.6342824],[83.3190508,54.6312786],[83.3157726,54.6285884],[83.3236704,54.6285861],[83.3336486,54.6524805],[83.3319402,54.6532425],[83.33138096878665,54.6533303549329],[83.32967375211483,54.65328135059839],[83.32707480171351,54.653253342457134],[83.32573112513121,54.653231555187226],[83.32421845396728,54.653181646270994],[83.32223365529482,54.65325704063562],[83.3203775,54.6527037],[83.3197552,54.6512264]]]},"properties":{"description":"Желтая зона II (Искитим)\nВремя доставки 100 мин.\nМинимальная сумма заказа от 1000 р.","fill":"#ffd21e","fill-opacity":0.76,"stroke":"#ffd21e","stroke-width":"1.2","stroke-opacity":1}},{"type":"Feature","id":24,"geometry":{"type":"Polygon","coordinates":[[[83.29509961153659,54.64226510144838],[83.2949494145416,54.6385058823308],[83.29495283255262,54.63714890108834],[83.29501962866603,54.63568000593503],[83.29511105396729,54.630104404495654],[83.29510311163936,54.628681228845714],[83.295181,54.6274074],[83.2965813,54.6246607],[83.2977668,54.6223362],[83.2988607,54.6201513],[83.29944234642636,54.62019611508966],[83.30015273888544,54.62056467863375],[83.30157352380367,54.621301795660926],[83.30304180262448,54.622352648648935],[83.30680960402137,54.62259758752624],[83.30846819916258,54.620902147305664],[83.30947988694614,54.62110035274533],[83.31019116732016,54.622269769584896],[83.31364783247136,54.622520934577956],[83.31513039178769,54.62305847315218],[83.3133494,54.6258378],[83.3150228,54.6293406],[83.3189283,54.6324955],[83.3204625,54.6347308],[83.3198511,54.6372146],[83.3171475,54.6427161],[83.3171155,54.6499547],[83.31709387587095,54.65178451518574],[83.31589207977534,54.65166086089479],[83.3146793883868,54.651338897129456],[83.31366906901711,54.650733917823324],[83.31208945550861,54.650032459914215],[83.31027287225568,54.64986386419791],[83.30896518096569,54.64990444809287],[83.30850629443363,54.65039784109986],[83.30751341951716,54.650453826378666],[83.30711553742104,54.650343179989285],[83.3042383790332,54.649790712853424],[83.30267367273863,54.64928966220215],[83.30268539460619,54.64866150356663],[83.30253726650065,54.64836852326679],[83.3021316463298,54.64802576739782],[83.2988313160222,54.64736513410757],[83.29759410959089,54.646891988408136],[83.29657073377543,54.646304937432795],[83.2956761039928,54.645481439707744],[83.29505628755793,54.64440684432908],[83.29509961153659,54.64226510144838]]]},"properties":{"description":"Зеленая зона (Искитим)\nВремя доставки 80 мин.\nМинимальная сумма заказа от 600 р.","fill":"#1bad03","fill-opacity":0.77,"stroke":"#1bad03","stroke-width":"3.401","stroke-opacity":1}},{"type":"Feature","id":25,"geometry":{"type":"Point","coordinates":[83.0931156,54.8717539]},"properties":{"iconCaption":"Sunrise Академгородок","marker-color":"#f371d1"}},{"type":"Feature","id":26,"geometry":{"type":"Point","coordinates":[82.9896016,54.8620561]},"properties":{"iconCaption":"Surise ОбьГЭС","marker-color":"#f371d1"}},{"type":"Feature","id":27,"geometry":{"type":"Point","coordinates":[83.304146,54.6328507]},"properties":{"iconCaption":"Sunrise Искитим","marker-color":"#f371d1"}},{"type":"Feature","id":28,"geometry":{"type":"Point","coordinates":[83.08202268085934,54.76253613678323]},"properties":{"iconCaption":"Sunrise Бердск","marker-color":"#f371d1"}}]}